[{"OBJECT_NAME":"SL-8 R/B","OBJECT_ID":"1991-006B","EPOCH":"2026-04-20T07:22:32.084256","MEAN_MOTION":13.77502719,"ECCENTRICITY":0.00209258,"INCLINATION":82.9408,"RA_OF_ASC_NODE":139.0975,"ARG_OF_PERICENTER":279.1494,"MEAN_ANOMALY":90.7801,"EPHEMERIS_TYPE":0,"CLASSIFICATION_TYPE":"U","NORAD_CAT_ID":21088,"ELEMENT_SET_NO":999,"REV_AT_EPOCH":76980,"BSTAR":0.00013582113,"MEAN_MOTION_DOT":1.5e-6,"MEAN_MOTION_DDOT":0},{"OBJECT_NAME":"OKEAN-3","OBJECT_ID":"1991-039A","EPOCH":"2026-04-20T05:38:53.766528","MEAN_MOTION":15.05026444,"ECCENTRICITY":0.00141038,"INCLINATION":82.5131,"RA_OF_ASC_NODE":296.5756,"ARG_OF_PERICENTER":182.33,"MEAN_ANOMALY":177.7864,"EPHEMERIS_TYPE":0,"CLASSIFICATION_TYPE":"U","NORAD_CAT_ID":21397,"ELEMENT_SET_NO":999,"REV_AT_EPOCH":87128,"BSTAR":0.00010490022,"MEAN_MOTION_DOT":1.52e-5,"MEAN_MOTION_DDOT":0},{"OBJECT_NAME":"COSMOS 2151","OBJECT_ID":"1991-042A","EPOCH":"2026-04-20T05:41:34.889568","MEAN_MOTION":15.002771,"ECCENTRICITY":0.00106358,"INCLINATION":82.4982,"RA_OF_ASC_NODE":43.5911,"ARG_OF_PERICENTER":281.5569,"MEAN_ANOMALY":78.4461,"EPHEMERIS_TYPE":0,"CLASSIFICATION_TYPE":"U","NORAD_CAT_ID":21422,"ELEMENT_SET_NO":999,"REV_AT_EPOCH":86942,"BSTAR":9.8476095e-5,"MEAN_MOTION_DOT":1.261e-5,"MEAN_MOTION_DDOT":0},{"OBJECT_NAME":"SL-14 R/B","OBJECT_ID":"1991-042B","EPOCH":"2026-04-20T05:13:57.498240","MEAN_MOTION":14.81867009,"ECCENTRICITY":0.00185694,"INCLINATION":82.4955,"RA_OF_ASC_NODE":181.2534,"ARG_OF_PERICENTER":103.8416,"MEAN_ANOMALY":256.4866,"EPHEMERIS_TYPE":0,"CLASSIFICATION_TYPE":"U","NORAD_CAT_ID":21423,"ELEMENT_SET_NO":999,"REV_AT_EPOCH":85922,"BSTAR":2.729272e-5,"MEAN_MOTION_DOT":2.4e-6,"MEAN_MOTION_DDOT":0},{"OBJECT_NAME":"ERS-1","OBJECT_ID":"1991-050A","EPOCH":"2026-04-20T01:20:29.200992","MEAN_MOTION":14.39479722,"ECCENTRICITY":0.00331008,"INCLINATION":98.7843,"RA_OF_ASC_NODE":129.3247,"ARG_OF_PERICENTER":80.1742,"MEAN_ANOMALY":280.318,"EPHEMERIS_TYPE":0,"CLASSIFICATION_TYPE":"U","NORAD_CAT_ID":21574,"ELEMENT_SET_NO":999,"REV_AT_EPOCH":82168,"BSTAR":7.9400428e-5,"MEAN_MOTION_DOT":2.03e-6,"MEAN_MOTION_DDOT":0},{"OBJECT_NAME":"ARIANE 40 R/B","OBJECT_ID":"1991-050F","EPOCH":"2026-04-20T03:31:56.752896","MEAN_MOTION":14.42921895,"ECCENTRICITY":0.00020905,"INCLINATION":98.1932,"RA_OF_ASC_NODE":160.8104,"ARG_OF_PERICENTER":328.8672,"MEAN_ANOMALY":31.2394,"EPHEMERIS_TYPE":0,"CLASSIFICATION_TYPE":"U","NORAD_CAT_ID":21610,"ELEMENT_SET_NO":999,"REV_AT_EPOCH":82497,"BSTAR":5.8192112e-5,"MEAN_MOTION_DOT":1.53e-6,"MEAN_MOTION_DDOT":0},{"OBJECT_NAME":"INTERCOSMOS 25","OBJECT_ID":"1991-086A","EPOCH":"2026-04-20T04:12:45.156960","MEAN_MOTION":12.12121729,"ECCENTRICITY":0.14858103,"INCLINATION":82.599,"RA_OF_ASC_NODE":284.9177,"ARG_OF_PERICENTER":27.5288,"MEAN_ANOMALY":339.7057,"EPHEMERIS_TYPE":0,"CLASSIFICATION_TYPE":"U","NORAD_CAT_ID":21819,"ELEMENT_SET_NO":999,"REV_AT_EPOCH":50171,"BSTAR":0.00014828999,"MEAN_MOTION_DOT":7.79e-6,"MEAN_MOTION_DDOT":0},{"OBJECT_NAME":"SL-8 R/B","OBJECT_ID":"1992-008B","EPOCH":"2026-04-20T07:25:13.814688","MEAN_MOTION":13.75970047,"ECCENTRICITY":0.00349568,"INCLINATION":82.9267,"RA_OF_ASC_NODE":236.8158,"ARG_OF_PERICENTER":20.612,"MEAN_ANOMALY":7.0796,"EPHEMERIS_TYPE":0,"CLASSIFICATION_TYPE":"U","NORAD_CAT_ID":21876,"ELEMENT_SET_NO":999,"REV_AT_EPOCH":71514,"BSTAR":-9.554634e-6,"MEAN_MOTION_DOT":6.0e-8,"MEAN_MOTION_DDOT":0},{"OBJECT_NAME":"SL-8 R/B","OBJECT_ID":"1992-020B","EPOCH":"2026-04-20T06:56:04.384896","MEAN_MOTION":13.75548979,"ECCENTRICITY":0.00290321,"INCLINATION":82.9271,"RA_OF_ASC_NODE":122.8665,"ARG_OF_PERICENTER":178.847,"MEAN_ANOMALY":192.2822,"EPHEMERIS_TYPE":0,"CLASSIFICATION_TYPE":"U","NORAD_CAT_ID":21938,"ELEMENT_SET_NO":999,"REV_AT_EPOCH":70685,"BSTAR":-7.2279025e-5,"MEAN_MOTION_DOT":-5.4e-7,"MEAN_MOTION_DDOT":0},{"OBJECT_NAME":"USA 81","OBJECT_ID":"1992-023A","EPOCH":"2026-04-20T05:22:29.295552","MEAN_MOTION":14.32380878,"ECCENTRICITY":0.00012217,"INCLINATION":85.0036,"RA_OF_ASC_NODE":107.4646,"ARG_OF_PERICENTER":93.7235,"MEAN_ANOMALY":266.4097,"EPHEMERIS_TYPE":0,"CLASSIFICATION_TYPE":"U","NORAD_CAT_ID":21949,"ELEMENT_SET_NO":999,"REV_AT_EPOCH":10073,"BSTAR":3.5658359e-5,"MEAN_MOTION_DOT":1.16e-6,"MEAN_MOTION_DDOT":0},{"OBJECT_NAME":"COSMOS 2219","OBJECT_ID":"1992-076A","EPOCH":"2026-04-20T06:09:21.041856","MEAN_MOTION":14.14091466,"ECCENTRICITY":0.00171274,"INCLINATION":71.0586,"RA_OF_ASC_NODE":291.175,"ARG_OF_PERICENTER":141.6235,"MEAN_ANOMALY":218.6109,"EPHEMERIS_TYPE":0,"CLASSIFICATION_TYPE":"U","NORAD_CAT_ID":22219,"ELEMENT_SET_NO":999,"REV_AT_EPOCH":72425,"BSTAR":0.00016552402,"MEAN_MOTION_DOT":2.69e-6,"MEAN_MOTION_DDOT":0},{"OBJECT_NAME":"SL-16 R/B","OBJECT_ID":"1992-076B","EPOCH":"2026-04-20T06:28:33.484800","MEAN_MOTION":14.16866855,"ECCENTRICITY":0.00117784,"INCLINATION":70.9981,"RA_OF_ASC_NODE":100.786,"ARG_OF_PERICENTER":21.6469,"MEAN_ANOMALY":349.1009,"EPHEMERIS_TYPE":0,"CLASSIFICATION_TYPE":"U","NORAD_CAT_ID":22220,"ELEMENT_SET_NO":999,"REV_AT_EPOCH":72772,"BSTAR":-5.2900275e-5,"MEAN_MOTION_DOT":-1.54e-6,"MEAN_MOTION_DDOT":0},{"OBJECT_NAME":"COSMOS 2221","OBJECT_ID":"1992-080A","EPOCH":"2026-04-19T19:57:30.589920","MEAN_MOTION":14.9637061,"ECCENTRICITY":0.001537,"INCLINATION":82.5035,"RA_OF_ASC_NODE":239.6608,"ARG_OF_PERICENTER":58.2036,"MEAN_ANOMALY":302.0681,"EPHEMERIS_TYPE":0,"CLASSIFICATION_TYPE":"U","NORAD_CAT_ID":22236,"ELEMENT_SET_NO":999,"REV_AT_EPOCH":78694,"BSTAR":0.00011724,"MEAN_MOTION_DOT":1.356e-5,"MEAN_MOTION_DDOT":0},{"OBJECT_NAME":"SL-16 R/B","OBJECT_ID":"1992-093B","EPOCH":"2026-04-20T03:39:00.156096","MEAN_MOTION":14.15454064,"ECCENTRICITY":0.00062583,"INCLINATION":71.0199,"RA_OF_ASC_NODE":277.2235,"ARG_OF_PERICENTER":251.3769,"MEAN_ANOMALY":108.6675,"EPHEMERIS_TYPE":0,"CLASSIFICATION_TYPE":"U","NORAD_CAT_ID":22285,"ELEMENT_SET_NO":999,"REV_AT_EPOCH":71902,"BSTAR":9.5878814e-5,"MEAN_MOTION_DOT":1.4e-6,"MEAN_MOTION_DDOT":0},{"OBJECT_NAME":"COSMOS 2228","OBJECT_ID":"1992-094A","EPOCH":"2026-04-20T05:18:34.344576","MEAN_MOTION":14.97391679,"ECCENTRICITY":0.00186093,"INCLINATION":82.5206,"RA_OF_ASC_NODE":197.5503,"ARG_OF_PERICENTER":158.1311,"MEAN_ANOMALY":202.071,"EPHEMERIS_TYPE":0,"CLASSIFICATION_TYPE":"U","NORAD_CAT_ID":22286,"ELEMENT_SET_NO":999,"REV_AT_EPOCH":78227,"BSTAR":0.00010409152,"MEAN_MOTION_DOT":1.24e-5,"MEAN_MOTION_DDOT":0},{"OBJECT_NAME":"SL-16 R/B","OBJECT_ID":"1993-016B","EPOCH":"2026-04-20T04:43:12.256032","MEAN_MOTION":14.15311556,"ECCENTRICITY":0.00126502,"INCLINATION":71.0042,"RA_OF_ASC_NODE":128.0074,"ARG_OF_PERICENTER":261.9578,"MEAN_ANOMALY":98.011,"EPHEMERIS_TYPE":0,"CLASSIFICATION_TYPE":"U","NORAD_CAT_ID":22566,"ELEMENT_SET_NO":999,"REV_AT_EPOCH":70804,"BSTAR":-0.00011599929,"MEAN_MOTION_DOT":-2.74e-6,"MEAN_MOTION_DDOT":0},{"OBJECT_NAME":"COSMOS 2242","OBJECT_ID":"1993-024A","EPOCH":"2026-04-20T06:55:25.831488","MEAN_MOTION":14.96724893,"ECCENTRICITY":0.00168413,"INCLINATION":82.5199,"RA_OF_ASC_NODE":226.9202,"ARG_OF_PERICENTER":160.9125,"MEAN_ANOMALY":199.2732,"EPHEMERIS_TYPE":0,"CLASSIFICATION_TYPE":"U","NORAD_CAT_ID":22626,"ELEMENT_SET_NO":999,"REV_AT_EPOCH":78661,"BSTAR":0.00010931708,"MEAN_MOTION_DOT":1.278e-5,"MEAN_MOTION_DDOT":0}]
