SL-8 R/B                
1 21088U 91006B   26110.30731579  .00000150  00000+0  13582-3 0  9997
2 21088  82.9408 139.0975 0020925 279.1494  90.7801 13.77502719769807
OKEAN-3                 
1 21397U 91039A   26110.23534452  .00001520  00000+0  10490-3 0  9996
2 21397  82.5131 296.5756 0014103 182.3300 177.7864 15.05026444871287
COSMOS 2151             
1 21422U 91042A   26110.23720937  .00001261  00000+0  98476-4 0  9997
2 21422  82.4982  43.5911 0010635 281.5569  78.4461 15.00277100869422
SL-14 R/B               
1 21423U 91042B   26110.21802660  .00000240  00000+0  27293-4 0  9995
2 21423  82.4955 181.2534 0018569 103.8416 256.4866 14.81867009859220
ERS-1                   
1 21574U 91050A   26110.05589353  .00000203  00000+0  79400-4 0  9990
2 21574  98.7843 129.3247 0033100  80.1742 280.3180 14.39479722821682
ARIANE 40 R/B           
1 21610U 91050F   26110.14718464  .00000153  00000+0  58192-4 0  9997
2 21610  98.1932 160.8104 0002090 328.8672  31.2394 14.42921895824978
INTERCOSMOS 25          
1 21819U 91086A   26110.17552265  .00000779  00000+0  14829-3 0  9997
2 21819  82.5990 284.9177 1485810  27.5288 339.7057 12.12121729501719
SL-8 R/B                
1 21876U 92008B   26110.30918767  .00000006  00000+0 -95546-5 0  9994
2 21876  82.9267 236.8158 0034956  20.6120   7.0796 13.75970047715141
SL-8 R/B                
1 21938U 92020B   26110.28893964 -.00000054  00000+0 -72279-4 0  9996
2 21938  82.9271 122.8665 0029032 178.8470 192.2822 13.75548979706855
USA 81                  
1 21949U 92023A   26110.22395018  .00000116  00000+0  35658-4 0  9999
2 21949  85.0036 107.4646 0001221  93.7235 266.4097 14.32380878100731
COSMOS 2219             
1 22219U 92076A   26110.25649354  .00000269  00000+0  16552-3 0  9996
2 22219  71.0586 291.1750 0017127 141.6235 218.6109 14.14091466724253
SL-16 R/B               
1 22220U 92076B   26110.26983200 -.00000154  00000+0 -52900-4 0  9993
2 22220  70.9981 100.7860 0011778  21.6469 349.1009 14.16866855727729
COSMOS 2221             
1 22236U 92080A   26109.83160405  .00001356  00000+0  11724-3 0  9991
2 22236  82.5035 239.6608 0015370  58.2036 302.0681 14.96370610786945
SL-16 R/B               
1 22285U 92093B   26110.15208514  .00000140  00000+0  95879-4 0  9994
2 22285  71.0199 277.2235 0006258 251.3769 108.6675 14.15454064719026
COSMOS 2228             
1 22286U 92094A   26110.22123084  .00001240  00000+0  10409-3 0  9999
2 22286  82.5206 197.5503 0018609 158.1311 202.0710 14.97391679782273
SL-16 R/B               
1 22566U 93016B   26110.19666963 -.00000274  00000+0 -11600-3 0  9991
2 22566  71.0042 128.0074 0012650 261.9578  98.0110 14.15311556708041
COSMOS 2242             
1 22626U 93024A   26110.28849342  .00001278  00000+0  10932-3 0  9991
2 22626  82.5199 226.9202 0016841 160.9125 199.2732 14.96724893786615
